start=new Date('2022-09-20T00:00:00.000Z').valueOf();
sats=[{"COUNTRY_CODE":"US","BSTAR":"0.00029329000000","RCS_SIZE":"LARGE","OBJECT_NAME":"STARLINK-1184","ELEMENT_SET_NO":"999","APOAPSIS":"548.148","NORAD_CAT_ID":"45098","INCLINATION":"53.0554","FILE":"3577889","OBJECT_ID":"2020-006BG","MEAN_MOTION_DOT":"0.00004091","REV_AT_EPOCH":"14597","DECAY_DATE":null,"CLASSIFICATION_TYPE":"U","MEAN_ELEMENT_THEORY":"SGP4","PERIOD":"95.592","MEAN_MOTION":"15.06408031","MEAN_MOTION_DDOT":"0.0000000000000","REF_FRAME":"TEME","MEAN_ANOMALY":"272.6894","TLE_LINE2":"2 45098  53.0554 176.7864 0001385  87.4253 272.6894 15.06408031145977","SEMIMAJOR_AXIS":"6925.324","TIME_SYSTEM":"UTC","SITE":"AFETR","OBJECT_TYPE":"PAYLOAD","RA_OF_ASC_NODE":"176.7864","ECCENTRICITY":"0.00013850","ARG_OF_PERICENTER":"87.4253","TLE_LINE1":"1 45098U 20006BG  22262.15649336  .00004091  00000-0  29329-3 0  9997","EPHEMERIS_TYPE":"0","LAUNCH_DATE":"2020-01-29","GP_ID":"212998014","PERIAPSIS":"546.230","CENTER_NAME":"EARTH","EPOCH":"2022-09-19T03:45:21.026304"},{"MEAN_MOTION_DOT":"0.00004274","OBJECT_ID":"2020-006BH","CLASSIFICATION_TYPE":"U","MEAN_ELEMENT_THEORY":"SGP4","MEAN_MOTION":"15.06413676","PERIOD":"95.591","REV_AT_EPOCH":"14607","DECAY_DATE":null,"RCS_SIZE":"LARGE","OBJECT_NAME":"STARLINK-1186","ELEMENT_SET_NO":"999","COUNTRY_CODE":"US","BSTAR":"0.00030554000000","FILE":"3578162","INCLINATION":"53.0532","NORAD_CAT_ID":"45099","APOAPSIS":"548.345","EPHEMERIS_TYPE":"0","TLE_LINE1":"1 45099U 20006BH  22262.78679704  .00004274  00000-0  30554-3 0  9994","EPOCH":"2022-09-19T18:52:59.264256","PERIAPSIS":"545.998","LAUNCH_DATE":"2020-01-29","GP_ID":"213028779","CENTER_NAME":"EARTH","MEAN_MOTION_DDOT":"0.0000000000000","RA_OF_ASC_NODE":"173.9797","OBJECT_TYPE":"PAYLOAD","ARG_OF_PERICENTER":"75.2421","ECCENTRICITY":"0.00016940","SEMIMAJOR_AXIS":"6925.307","TLE_LINE2":"2 45099  53.0532 173.9797 0001694  75.2421 284.8756 15.06413676146078","MEAN_ANOMALY":"284.8756","REF_FRAME":"TEME","SITE":"AFETR","TIME_SYSTEM":"UTC"},{"SITE":"AFETR","TIME_SYSTEM":"UTC","TLE_LINE2":"2 45100  53.0537 175.3349 0001397  67.8861 292.2276 15.06396662146378","SEMIMAJOR_AXIS":"6925.359","MEAN_ANOMALY":"292.2276","REF_FRAME":"TEME","ECCENTRICITY":"0.00013970","ARG_OF_PERICENTER":"67.8861","OBJECT_TYPE":"PAYLOAD","RA_OF_ASC_NODE":"175.3349","MEAN_MOTION_DDOT":"0.0000000000000","CENTER_NAME":"EARTH","PERIAPSIS":"546.256","LAUNCH_DATE":"2020-01-29","GP_ID":"212999498","EPOCH":"2022-09-19T11:37:46.454016","TLE_LINE1":"1 45100U 20006BJ  22262.48456544  .00004990  00000-0  35365-3 0  9999","EPHEMERIS_TYPE":"0","NORAD_CAT_ID":"45100","APOAPSIS":"548.191","FILE":"3577889","INCLINATION":"53.0537","BSTAR":"0.00035365000000","COUNTRY_CODE":"US","OBJECT_NAME":"STARLINK-1193","RCS_SIZE":"LARGE","ELEMENT_SET_NO":"999","DECAY_DATE":null,"REV_AT_EPOCH":"14637","MEAN_MOTION":"15.06396662","PERIOD":"95.592","MEAN_ELEMENT_THEORY":"SGP4","CLASSIFICATION_TYPE":"U","OBJECT_ID":"2020-006BJ","MEAN_MOTION_DOT":"0.00004990"},{"EPOCH":"2022-09-19T11:31:04.427904","LAUNCH_DATE":"2020-01-29","GP_ID":"212998264","PERIAPSIS":"546.010","CENTER_NAME":"EARTH","EPHEMERIS_TYPE":"0","TLE_LINE1":"1 45101U 20006BK  22262.47991236  .00004506  00000-0  32107-3 0  9995","OBJECT_TYPE":"PAYLOAD","RA_OF_ASC_NODE":"175.3249","ARG_OF_PERICENTER":"79.0377","ECCENTRICITY":"0.00016770","REF_FRAME":"TEME","SEMIMAJOR_AXIS":"6925.306","TLE_LINE2":"2 45101  53.0536 175.3249 0001677  79.0377 281.0800 15.06413762146027","MEAN_ANOMALY":"281.0800","TIME_SYSTEM":"UTC","SITE":"AFETR","MEAN_MOTION_DDOT":"0.0000000000000","MEAN_ELEMENT_THEORY":"SGP4","CLASSIFICATION_TYPE":"U","PERIOD":"95.591","MEAN_MOTION":"15.06413762","REV_AT_EPOCH":"14602","DECAY_DATE":null,"MEAN_MOTION_DOT":"0.00004506","OBJECT_ID":"2020-006BK","INCLINATION":"53.0536","FILE":"3577889","APOAPSIS":"548.333","NORAD_CAT_ID":"45101","RCS_SIZE":"LARGE","ELEMENT_SET_NO":"999","OBJECT_NAME":"STARLINK-1194","COUNTRY_CODE":"US","BSTAR":"0.00032107000000"},{"MEAN_MOTION_DOT":"0.00001053","OBJECT_ID":"2020-006BL","CLASSIFICATION_TYPE":"U","MEAN_ELEMENT_THEORY":"SGP4","PERIOD":"95.593","MEAN_MOTION":"15.06391490","REV_AT_EPOCH":"14597","DECAY_DATE":null,"ELEMENT_SET_NO":"999","RCS_SIZE":"LARGE","OBJECT_NAME":"STARLINK-1195","COUNTRY_CODE":"US","BSTAR":"0.00008959500000","INCLINATION":"53.0546","FILE":"3577889","APOAPSIS":"548.085","NORAD_CAT_ID":"45102","EPHEMERIS_TYPE":"0","TLE_LINE1":"1 45102U 20006BL  22262.17124139  .00001053  00000-0  89595-4 0  9991","EPOCH":"2022-09-19T04:06:35.256096","GP_ID":"212998514","LAUNCH_DATE":"2020-01-29","PERIAPSIS":"546.395","CENTER_NAME":"EARTH","MEAN_MOTION_DDOT":"0.0000000000000","OBJECT_TYPE":"PAYLOAD","RA_OF_ASC_NODE":"176.7279","ARG_OF_PERICENTER":"80.7952","ECCENTRICITY":"0.00012200","REF_FRAME":"TEME","TLE_LINE2":"2 45102  53.0546 176.7279 0001220  80.7952 279.3175 15.06391490145970","MEAN_ANOMALY":"279.3175","SEMIMAJOR_AXIS":"6925.375","TIME_SYSTEM":"UTC","SITE":"AFETR"},{"MEAN_MOTION_DDOT":"0.0000000000000","SITE":"AFETR","TIME_SYSTEM":"UTC","MEAN_ANOMALY":"259.0217","TLE_LINE2":"2 45103  53.0537 175.3858 0001158 101.0902 259.0217 15.06397234146022","SEMIMAJOR_AXIS":"6925.357","REF_FRAME":"TEME","ARG_OF_PERICENTER":"101.0902","ECCENTRICITY":"0.00011580","OBJECT_TYPE":"PAYLOAD","RA_OF_ASC_NODE":"175.3858","TLE_LINE1":"1 45103U 20006BM  22262.46884881  .00001593  00000-0  12584-3 0  9993","EPHEMERIS_TYPE":"0","CENTER_NAME":"EARTH","PERIAPSIS":"546.420","GP_ID":"212998765","LAUNCH_DATE":"2020-01-29","EPOCH":"2022-09-19T11:15:08.537184","BSTAR":"0.00012584000000","COUNTRY_CODE":"US","RCS_SIZE":"LARGE","OBJECT_NAME":"STARLINK-1196","ELEMENT_SET_NO":"999","NORAD_CAT_ID":"45103","APOAPSIS":"548.024","FILE":"3577889","INCLINATION":"53.0537","OBJECT_ID":"2020-006BM","MEAN_MOTION_DOT":"0.00001593","DECAY_DATE":null,"REV_AT_EPOCH":"14602","MEAN_MOTION":"15.06397234","PERIOD":"95.592","CLASSIFICATION_TYPE":"U","MEAN_ELEMENT_THEORY":"SGP4"},{"ELEMENT_SET_NO":"999","RCS_SIZE":"LARGE","OBJECT_NAME":"STARLINK-1138","COUNTRY_CODE":"US","BSTAR":"0.00034171000000","FILE":"3578162","INCLINATION":"53.0531","NORAD_CAT_ID":"45178","APOAPSIS":"548.233","MEAN_MOTION_DOT":"0.00004812","OBJECT_ID":"2020-012A","MEAN_ELEMENT_THEORY":"SGP4","CLASSIFICATION_TYPE":"U","MEAN_MOTION":"15.06403492","PERIOD":"95.592","REV_AT_EPOCH":"14381","DECAY_DATE":null,"MEAN_MOTION_DDOT":"0.0000000000000","RA_OF_ASC_NODE":"334.2786","OBJECT_TYPE":"PAYLOAD","ECCENTRICITY":"0.00014880","ARG_OF_PERICENTER":"67.7927","TLE_LINE2":"2 45178  53.0531 334.2786 0001488  67.7927 292.3220 15.06403492143817","MEAN_ANOMALY":"292.3220","SEMIMAJOR_AXIS":"6925.338","REF_FRAME":"TEME","SITE":"AFETR","TIME_SYSTEM":"UTC","EPHEMERIS_TYPE":"0","TLE_LINE1":"1 45178U 20012A   22262.72045573  .00004812  00000-0  34171-3 0  9991","EPOCH":"2022-09-19T17:17:27.375072","PERIAPSIS":"546.172","LAUNCH_DATE":"2020-02-17","GP_ID":"213029037","CENTER_NAME":"EARTH"},{"EPHEMERIS_TYPE":"0","TLE_LINE1":"1 45179U 20012B   22262.72319573  .00003805  00000-0  27413-3 0  9998","EPOCH":"2022-09-19T17:21:24.111072","CENTER_NAME":"EARTH","GP_ID":"213030287","LAUNCH_DATE":"2020-02-17","PERIAPSIS":"546.230","MEAN_MOTION_DDOT":"0.0000000000000","ECCENTRICITY":"0.00013840","ARG_OF_PERICENTER":"65.4181","RA_OF_ASC_NODE":"334.2461","OBJECT_TYPE":"PAYLOAD","TIME_SYSTEM":"UTC","SITE":"AFETR","REF_FRAME":"TEME","TLE_LINE2":"2 45179  53.0560 334.2461 0001384  65.4181 294.6952 15.06408190143875","SEMIMAJOR_AXIS":"6925.323","MEAN_ANOMALY":"294.6952","MEAN_MOTION_DOT":"0.00003805","OBJECT_ID":"2020-012B","PERIOD":"95.592","MEAN_MOTION":"15.06408190","MEAN_ELEMENT_THEORY":"SGP4","CLASSIFICATION_TYPE":"U","DECAY_DATE":null,"REV_AT_EPOCH":"14387","RCS_SIZE":"LARGE","ELEMENT_SET_NO":"999","OBJECT_NAME":"STARLINK-1143","BSTAR":"0.00027413000000","COUNTRY_CODE":"US","INCLINATION":"53.0560","FILE":"3578162","APOAPSIS":"548.147","NORAD_CAT_ID":"45179"},{"OBJECT_ID":"2020-012C","MEAN_MOTION_DOT":"0.00012112","REV_AT_EPOCH":"14324","DECAY_DATE":null,"MEAN_ELEMENT_THEORY":"SGP4","CLASSIFICATION_TYPE":"U","PERIOD":"95.241","MEAN_MOTION":"15.11948371","COUNTRY_CODE":"US","BSTAR":"0.00071433000000","ELEMENT_SET_NO":"999","RCS_SIZE":"LARGE","OBJECT_NAME":"STARLINK-1192","APOAPSIS":"531.241","NORAD_CAT_ID":"45180","INCLINATION":"53.0521","FILE":"3577776","TLE_LINE1":"1 45180U 20012C   22262.46274225  .00012112  00000-0  71433-3 0  9997","EPHEMERIS_TYPE":"0","LAUNCH_DATE":"2020-02-17","GP_ID":"212976246","PERIAPSIS":"529.280","CENTER_NAME":"EARTH","EPOCH":"2022-09-19T11:06:20.930400","MEAN_MOTION_DDOT":"0.0000000000000","REF_FRAME":"TEME","TLE_LINE2":"2 45180  53.0521 331.3383 0001419  22.4019 337.7034 15.11948371143244","MEAN_ANOMALY":"337.7034","SEMIMAJOR_AXIS":"6908.396","TIME_SYSTEM":"UTC","SITE":"AFETR","RA_OF_ASC_NODE":"331.3383","OBJECT_TYPE":"PAYLOAD","ECCENTRICITY":"0.00014190","ARG_OF_PERICENTER":"22.4019"},{"ECCENTRICITY":"0.00014450","ARG_OF_PERICENTER":"82.9260","RA_OF_ASC_NODE":"334.9258","OBJECT_TYPE":"PAYLOAD","SITE":"AFETR","TIME_SYSTEM":"UTC","MEAN_ANOMALY":"277.1893","TLE_LINE2":"2 45181  53.0558 334.9258 0001445  82.9260 277.1893 15.06399551143854","SEMIMAJOR_AXIS":"6925.350","REF_FRAME":"TEME","MEAN_MOTION_DDOT":"0.0000000000000","EPOCH":"2022-09-19T13:50:26.442816","CENTER_NAME":"EARTH","PERIAPSIS":"546.214","LAUNCH_DATE":"2020-02-17","GP_ID":"213028787","EPHEMERIS_TYPE":"0","TLE_LINE1":"1 45181U 20012D   22262.57669494  .00001650  00000-0  12963-3 0  9994","FILE":"3578162","INCLINATION":"53.0558","NORAD_CAT_ID":"45181","APOAPSIS":"548.216","OBJECT_NAME":"STARLINK-1200","RCS_SIZE":"LARGE","ELEMENT_SET_NO":"999","BSTAR":"0.00012963000000","COUNTRY_CODE":"US","MEAN_MOTION":"15.06399551","PERIOD":"95.592","MEAN_ELEMENT_THEORY":"SGP4","CLASSIFICATION_TYPE":"U","DECAY_DATE":null,"REV_AT_EPOCH":"14385","MEAN_MOTION_DOT":"0.00001650","OBJECT_ID":"2020-012D"}];
